[{"OBJECT_NAME":"STARLINK-31442","OBJECT_ID":"2024-098B","EPOCH":"2026-03-08T23:43:37.288128","MEAN_MOTION":15.27569616,"ECCENTRICITY":0.00012729,"INCLINATION":43.004,"RA_OF_ASC_NODE":285.8538,"ARG_OF_PERICENTER":275.8834,"MEAN_ANOMALY":84.1873,"EPHEMERIS_TYPE":0,"CLASSIFICATION_TYPE":"U","NORAD_CAT_ID":59859,"ELEMENT_SET_NO":999,"REV_AT_EPOCH":10169,"BSTAR":-1.6929042e-5,"MEAN_MOTION_DOT":-7.28e-6,"MEAN_MOTION_DDOT":0},{"OBJECT_NAME":"ELECTRON KICK STAGE R\/B","OBJECT_ID":"2022-147B","EPOCH":"2026-03-09T22:28:20.187264","MEAN_MOTION":15.28920172,"ECCENTRICITY":0.00095089,"INCLINATION":97.642,"RA_OF_ASC_NODE":85.1135,"ARG_OF_PERICENTER":110.4683,"MEAN_ANOMALY":249.7578,"EPHEMERIS_TYPE":0,"CLASSIFICATION_TYPE":"U","NORAD_CAT_ID":54228,"ELEMENT_SET_NO":999,"REV_AT_EPOCH":18390,"BSTAR":0.00083201931,"MEAN_MOTION_DOT":0.00023374,"MEAN_MOTION_DDOT":0}]
